<?xml version='1.0' encoding='UTF-8' standalone='yes' ?>
<kml xmlns="http://www.opengis.net/kml/2.2" xmlns:atom="http://www.w3.org/2005/Atom" xmlns:gx="http://www.google.com/kml/ext/2.2" xmlns:kml="http://www.opengis.net/kml/2.2" xmlns:xsd="https://www.w3.org/2001/XMLSchema">
   <Document>
      <description>tt26.kml generated by ATAK v5.6.0.12 (9c9a5897)[playstore] on: 2026-05-07T10:06:45Z</description>
      <name>tt26.kml</name>
      <open>true</open>
      <Style id="799721869">
         <IconStyle>
            <color>FFFF00FF</color>
            <Icon>
               <href>http://maps.google.com/mapfiles/kml/pushpin/wht-pushpin.png</href>
            </Icon>
         </IconStyle>
         <LineStyle>
            <color>FFFF00FF</color>
            <width>4.0</width>
         </LineStyle>
      </Style>
      <Style id="-842070707">
         <IconStyle>
            <color>FF0077FF</color>
            <Icon>
               <href>http://maps.google.com/mapfiles/kml/pushpin/wht-pushpin.png</href>
            </Icon>
         </IconStyle>
         <LineStyle>
            <color>FF0077FF</color>
            <width>4.0</width>
         </LineStyle>
      </Style>
      <Style id="-813514995">
         <IconStyle>
            <color>FF00FF00</color>
            <Icon>
               <href>http://maps.google.com/mapfiles/kml/pushpin/wht-pushpin.png</href>
            </Icon>
         </IconStyle>
         <LineStyle>
            <color>FF00FF00</color>
            <width>4.0</width>
         </LineStyle>
      </Style>
      <Folder>
         <name>Routes</name>
         <Placemark id="52b2afeb-c550-43ae-9edf-8dbdbd0ff18fTt26 35a Path">
            <extendedData>
               <Data name="RouteOrder">
                  <value>Ascending Check Points</value>
               </Data>
               <Data name="RouteMethod">
                  <value>Walking</value>
               </Data>
               <Data name="RouteDirection">
                  <value>Infil</value>
               </Data>
               <Data name="RouteType">
                  <value>Primary</value>
               </Data>
               <Data name="PlanningMethod">
                  <value>Infil</value>
               </Data>
            </extendedData>
            <name>Tt26 35a Path</name>
            <styleUrl>#-813514995</styleUrl>
            <visibility>true</visibility>
            <LineString>
               <altitudeMode>absolute</altitudeMode>
               <coordinates>-4.0017722675722744,50.71557846160612,414.6502649621403 -3.9654169068482448,50.69298017743171,507.18786856498775 -4.001499079210339,50.67544053713124,603.0123299915786 -4.028804510033935,50.669265430163286,627.3419152373325 -4.080628439369551,50.65784416325142,372.85447108609617 -4.050250442936434,50.64042243392584,561.839735389394 -4.057482608261469,50.614830942503154,355.70817400022 -4.024074456313783,50.59616265658833,544.4344678430108 -3.9516621498080378,50.59121030938545,571.2664950636394 -3.9139205706805376,50.592952068992204,398.5245236245422 -3.933310083297198,50.63108510876085,583.3184727484038 -3.8897297681501453,50.66062574095023,476.4775136532225 -3.9409584624638194,50.66526855526644,574.2765102420539 -3.93340468871659,50.70719141028761,598.2637273405941 -3.9660364991095185,50.70839145242159,511.01122198566935 -4.001014066654,50.715630781484236,410.3650768342177 </coordinates>
            </LineString>
         </Placemark>
         <Placemark id="75af5fab-28a5-4ea8-a121-e84e2dec36e0">
            <name>Tt26 35a SP</name>
            <styleUrl>#-813514995</styleUrl>
            <visibility>true</visibility>
            <Point>
               <altitudeMode>absolute</altitudeMode>
               <coordinates>-4.0017722675722744,50.71557846160612,414.6502649621403 </coordinates>
            </Point>
         </Placemark>
         <Placemark id="65f0b713-e6dc-41aa-832b-579ce4af84b3">
            <name>TGT</name>
            <styleUrl>#-813514995</styleUrl>
            <visibility>true</visibility>
            <Point>
               <altitudeMode>absolute</altitudeMode>
               <coordinates>-4.001014066654,50.715630781484236,410.3650768342177 </coordinates>
            </Point>
         </Placemark>
         <Placemark id="c20feb73-2530-4375-b861-266f433ffa09Tt26 35b Path">
            <extendedData>
               <Data name="RouteOrder">
                  <value>Ascending Check Points</value>
               </Data>
               <Data name="RouteMethod">
                  <value>Walking</value>
               </Data>
               <Data name="RouteDirection">
                  <value>Infil</value>
               </Data>
               <Data name="RouteType">
                  <value>Primary</value>
               </Data>
               <Data name="PlanningMethod">
                  <value>Infil</value>
               </Data>
            </extendedData>
            <name>Tt26 35b Path</name>
            <styleUrl>#-842070707</styleUrl>
            <visibility>true</visibility>
            <LineString>
               <altitudeMode>absolute</altitudeMode>
               <coordinates>-4.0017722675112415,50.71554710457889,414.61401965169836 -4.0019525170404355,50.6753044729414,601.5184916705801 -3.9972399987959273,50.65535959733903,613.3891859591639 -4.05022462118889,50.64041742959104,561.9402258488321 -4.057467558931211,50.615063956699565,355.402786756707 -4.023997766358171,50.59625070691515,544.5725331905846 -3.951776200369948,50.59103006738027,571.5410564660258 -3.9140965802400682,50.59307941720675,397.67703291013413 -3.879223030051133,50.61606569485793,539.4020252165329 -3.8895789102133915,50.660623325561794,477.09105976698606 -3.923360093355224,50.64305168326441,502.20348156238424 -3.940924541879205,50.66536460579844,572.5969176564607 -3.9841047581127835,50.69186449127793,556.3604801022345 -4.001643200826138,50.71539494732401,413.2090796242813 </coordinates>
            </LineString>
         </Placemark>
         <Placemark id="94be3949-6a51-4407-a183-71064cd75f05">
            <name>Tt26 35b SP</name>
            <styleUrl>#-842070707</styleUrl>
            <visibility>true</visibility>
            <Point>
               <altitudeMode>absolute</altitudeMode>
               <coordinates>-4.0017722675112415,50.71554710457889,414.61401965169836 </coordinates>
            </Point>
         </Placemark>
         <Placemark id="a3cfcf76-9745-4c1e-9488-89510e6f4758">
            <name>TGT</name>
            <styleUrl>#-842070707</styleUrl>
            <visibility>true</visibility>
            <Point>
               <altitudeMode>absolute</altitudeMode>
               <coordinates>-4.001643200826138,50.71539494732401,413.2090796242813 </coordinates>
            </Point>
         </Placemark>
         <Placemark id="cc0573dc-b9ae-49ad-a883-5cb4965df3ceTt26 45 Path">
            <extendedData>
               <Data name="RouteOrder">
                  <value>Ascending Check Points</value>
               </Data>
               <Data name="RouteMethod">
                  <value>Walking</value>
               </Data>
               <Data name="RouteDirection">
                  <value>Infil</value>
               </Data>
               <Data name="RouteType">
                  <value>Primary</value>
               </Data>
               <Data name="PlanningMethod">
                  <value>Infil</value>
               </Data>
            </extendedData>
            <name>Tt26 45 Path</name>
            <styleUrl>#799721869</styleUrl>
            <visibility>true</visibility>
            <LineString>
               <altitudeMode>absolute</altitudeMode>
               <coordinates>-4.00161659844857,50.71571803571383,413.6195591807384 -3.9969140809665262,50.65576314725641,614.86198554619 -4.02811968731868,50.66901068347241,625.4089636556179 -4.080814773278255,50.65825079193337,373.5879253817576 -4.0503507729763015,50.64050507523228,560.7668319815663 -4.086033874434518,50.630389561833674,384.1027913381143 -4.024455935244148,50.59589095585483,545.3373030037841 -4.027661253057436,50.56915260811478,538.688462174068 -3.99086038361846,50.570943761603395,527.38070190635 -3.971692826166013,50.600955748129515,592.0944414177311 -3.9140857958528334,50.592762410723175,398.8531361709134 -3.878873707289088,50.61604963127442,539.261617205044 -3.88968605175905,50.66071588247919,476.51367829392746 -3.9331309127807312,50.631291766252964,582.4525697708274 -3.94071190604498,50.665459652277214,570.4858547315291 -3.9566994204298487,50.68270160271586,576.5542698549199 -3.901054473367044,50.69594244151762,379.9304054833213 -3.9657280006387277,50.708312621299896,511.38371281283844 -4.00105716145179,50.71561406768013,410.59781861357084 </coordinates>
            </LineString>
         </Placemark>
         <Placemark id="6a3a13d1-28b2-46ff-934c-4b55000d664a">
            <name>Tt26 45 SP</name>
            <styleUrl>#799721869</styleUrl>
            <visibility>true</visibility>
            <Point>
               <altitudeMode>absolute</altitudeMode>
               <coordinates>-4.00161659844857,50.71571803571383,413.6195591807384 </coordinates>
            </Point>
         </Placemark>
         <Placemark id="844c3f36-643e-4b14-9735-f24482c82ca3">
            <name>TGT</name>
            <styleUrl>#799721869</styleUrl>
            <visibility>true</visibility>
            <Point>
               <altitudeMode>absolute</altitudeMode>
               <coordinates>-4.00105716145179,50.71561406768013,410.59781861357084 </coordinates>
            </Point>
         </Placemark>
      </Folder>
   </Document>
</kml>
