<?xml version='1.0' encoding='UTF-8' standalone='yes' ?>
<kml xmlns="http://www.opengis.net/kml/2.2" xmlns:atom="http://www.w3.org/2005/Atom" xmlns:gx="http://www.google.com/kml/ext/2.2" xmlns:kml="http://www.opengis.net/kml/2.2" xmlns:xsd="https://www.w3.org/2001/XMLSchema">
   <Document>
      <description>Tt8.kml generated by ATAK v5.6.0.12 (9c9a5897)[playstore] on: 2026-04-25T07:45:40Z</description>
      <name>Tt8.kml</name>
      <open>true</open>
      <Style id="-841220625">
         <IconStyle>
            <color>FF007F00</color>
            <Icon>
               <href>http://maps.google.com/mapfiles/kml/pushpin/wht-pushpin.png</href>
            </Icon>
         </IconStyle>
         <LineStyle>
            <color>FF007F00</color>
            <width>4.0</width>
         </LineStyle>
      </Style>
      <Folder>
         <name>Routes</name>
         <Placemark id="2bd65597-9169-4dc5-aabe-7d05e77b3bf6Tt8 35a Pm Path">
            <extendedData>
               <Data name="RouteOrder">
                  <value>Ascending Check Points</value>
               </Data>
               <Data name="RouteMethod">
                  <value>Walking</value>
               </Data>
               <Data name="RouteDirection">
                  <value>Infil</value>
               </Data>
               <Data name="RouteType">
                  <value>Primary</value>
               </Data>
               <Data name="PlanningMethod">
                  <value>Infil</value>
               </Data>
            </extendedData>
            <name>Tt8 35a Pm Path</name>
            <styleUrl>#-841220625</styleUrl>
            <visibility>true</visibility>
            <LineString>
               <altitudeMode>absolute</altitudeMode>
               <coordinates>-3.760748162488481,50.57437793861175,445.1675876968985 -3.78764815206329,50.56995103188938,469.43159533760036 -3.7911102469888807,50.582876796714196,427.45332758622646 -3.7725876,50.5949926,438.481 -3.7493841426686667,50.597121045236676,455.35433827807003 -3.7517638258057215,50.57557754953597,446.55081919595295 -3.771131199520918,50.565984207669125,521.8332239197837 -3.7834491589421315,50.56031264646486,414.995517615068 </coordinates>
            </LineString>
         </Placemark>
         <Placemark id="4c10a6be-ede5-415c-9823-a850ac76be14">
            <name>Tt8 35a Pm SP</name>
            <styleUrl>#-841220625</styleUrl>
            <visibility>true</visibility>
            <Point>
               <altitudeMode>absolute</altitudeMode>
               <coordinates>-3.760748162488481,50.57437793861175,445.1675876968985 </coordinates>
            </Point>
         </Placemark>
         <Placemark id="cb498ae7-df67-48c1-a58f-5996773fe9aa">
            <name>CP1</name>
            <styleUrl>#-841220625</styleUrl>
            <visibility>true</visibility>
            <Point>
               <altitudeMode>absolute</altitudeMode>
               <coordinates>-3.7725876,50.5949926,438.481 </coordinates>
            </Point>
         </Placemark>
         <Placemark id="d46ae807-dd7b-4c66-817c-59646c0ed601">
            <name>TGT</name>
            <styleUrl>#-841220625</styleUrl>
            <visibility>true</visibility>
            <Point>
               <altitudeMode>absolute</altitudeMode>
               <coordinates>-3.7834491589421315,50.56031264646486,414.995517615068 </coordinates>
            </Point>
         </Placemark>
      </Folder>
   </Document>
</kml>
